{
  "type": "FeatureCollection",
  "features": [
    {
      "type": "Feature",
      "properties": {
        "norad_id": 33412,
        "name": "COSMO-SKYMED 3",
        "group": "resource",
        "lat": -66.3705663124462,
        "lon": 2.987222463043123,
        "alt_km": 557.2903537289003,
        "timestamp": "2025-12-16T21:38:56.826380+00:00",
        "meta_object_name": "COSMO-SKYMED 3",
        "meta_object_id": "2008-054A",
        "meta_epoch": "2025-12-16T07:47:29.501664",
        "meta_mean_motion": 15.05392338,
        "meta_eccentricity": 0.00163537,
        "meta_inclination": 97.8476,
        "meta_ra_of_asc_node": 200.7764,
        "meta_arg_of_pericenter": 160.7043,
        "meta_mean_anomaly": 199.4806,
        "meta_ephemeris_type": 0,
        "meta_classification_type": "U",
        "meta_norad_cat_id": 33412,
        "meta_element_set_no": 999,
        "meta_rev_at_epoch": 92941,
        "meta_bstar": 0.00027113182,
        "meta_mean_motion_dot": 3.834e-05,
        "meta_mean_motion_ddot": 0,
        "tle_line1": "1 33412U 08054A   25350.32464701  .00003834  00000+0  27113-3 0  9996",
        "tle_line2": "2 33412  97.8476 200.7764 0016353 160.7043 199.4806 15.05392338929412"
      },
      "geometry": {
        "type": "Point",
        "coordinates": [
          2.987222463043123,
          -66.3705663124462
        ]
      }
    },
    {
      "type": "Feature",
      "properties": {
        "norad_id": 33446,
        "name": "YAOGAN-4",
        "group": "resource",
        "lat": -67.74494485153163,
        "lon": 81.07539668281463,
        "alt_km": 623.3938927884719,
        "timestamp": "2025-12-16T21:38:56.826392+00:00",
        "meta_object_name": "YAOGAN-4",
        "meta_object_id": "2008-061A",
        "meta_epoch": "2025-12-16T07:34:14.077344",
        "meta_mean_motion": 14.82693387,
        "meta_eccentricity": 0.00133535,
        "meta_inclination": 97.9187,
        "meta_ra_of_asc_node": 280.3797,
        "meta_arg_of_pericenter": 310.8993,
        "meta_mean_anomaly": 49.1063,
        "meta_ephemeris_type": 0,
        "meta_classification_type": "U",
        "meta_norad_cat_id": 33446,
        "meta_element_set_no": 999,
        "meta_rev_at_epoch": 91856,
        "meta_bstar": 0.00017752381,
        "meta_mean_motion_dot": 1.38e-05,
        "meta_mean_motion_ddot": 0,
        "tle_line1": "1 33446U 08061A   25350.31544071  .00001380  00000+0  17752-3 0  9991",
        "tle_line2": "2 33446  97.9187 280.3797 0013353 310.8993  49.1063 14.82693387918560"
      },
      "geometry": {
        "type": "Point",
        "coordinates": [
          81.07539668281463,
          -67.74494485153163
        ]
      }
    },
    {
      "type": "Feature",
      "properties": {
        "norad_id": 33492,
        "name": "GOSAT (IBUKI)",
        "group": "resource",
        "lat": 72.74984388148232,
        "lon": 72.23293430523178,
        "alt_km": 661.333418641746,
        "timestamp": "2025-12-16T21:38:56.826403+00:00",
        "meta_object_name": "GOSAT (IBUKI)",
        "meta_object_id": "2009-002A",
        "meta_epoch": "2025-12-16T06:34:57.271872",
        "meta_mean_motion": 14.67532853,
        "meta_eccentricity": 9.554e-05,
        "meta_inclination": 98.0769,
        "meta_ra_of_asc_node": 98.8286,
        "meta_arg_of_pericenter": 98.1242,
        "meta_mean_anomaly": 262.0071,
        "meta_ephemeris_type": 0,
        "meta_classification_type": "U",
        "meta_norad_cat_id": 33492,
        "meta_element_set_no": 999,
        "meta_rev_at_epoch": 90463,
        "meta_bstar": 0.00015559262,
        "meta_mean_motion_dot": 8.34e-06,
        "meta_mean_motion_ddot": 0,
        "tle_line1": "1 33492U 09002A   25350.27427398  .00000834  00000+0  15559-3 0  9991",
        "tle_line2": "2 33492  98.0769  98.8286 0000955  98.1242 262.0071 14.67532853904632"
      },
      "geometry": {
        "type": "Point",
        "coordinates": [
          72.23293430523178,
          72.74984388148232
        ]
      }
    },
    {
      "type": "Feature",
      "properties": {
        "norad_id": 35681,
        "name": "DEIMOS-1",
        "group": "resource",
        "lat": -79.77841921955275,
        "lon": -77.43160128578555,
        "alt_km": 654.4574397822844,
        "timestamp": "2025-12-16T21:38:56.826414+00:00",
        "meta_object_name": "DEIMOS-1",
        "meta_object_id": "2009-041A",
        "meta_epoch": "2025-12-16T09:03:43.355232",
        "meta_mean_motion": 14.74960244,
        "meta_eccentricity": 0.00026561,
        "meta_inclination": 97.7145,
        "meta_ra_of_asc_node": 150.8109,
        "meta_arg_of_pericenter": 73.5031,
        "meta_mean_anomaly": 286.647,
        "meta_ephemeris_type": 0,
        "meta_classification_type": "U",
        "meta_norad_cat_id": 35681,
        "meta_element_set_no": 999,
        "meta_rev_at_epoch": 87993,
        "meta_bstar": 0.00014159612,
        "meta_mean_motion_dot": 9.04e-06,
        "meta_mean_motion_ddot": 0,
        "tle_line1": "1 35681U 09041A   25350.37758513  .00000904  00000+0  14160-3 0  9998",
        "tle_line2": "2 35681  97.7145 150.8109 0002656  73.5031 286.6470 14.74960244879930"
      },
      "geometry": {
        "type": "Point",
        "coordinates": [
          -77.43160128578555,
          -79.77841921955275
        ]
      }
    },
    {
      "type": "Feature",
      "properties": {
        "norad_id": 35682,
        "name": "DUBAISAT-1",
        "group": "resource",
        "lat": -12.93397190642171,
        "lon": -60.32563328986887,
        "alt_km": 652.8355679096503,
        "timestamp": "2025-12-16T21:38:56.826425+00:00",
        "meta_object_name": "DUBAISAT-1",
        "meta_object_id": "2009-041B",
        "meta_epoch": "2025-12-16T07:44:51.876960",
        "meta_mean_motion": 14.74614048,
        "meta_eccentricity": 0.00094183,
        "meta_inclination": 97.9793,
        "meta_ra_of_asc_node": 120.9498,
        "meta_arg_of_pericenter": 301.8459,
        "meta_mean_anomaly": 58.1832,
        "meta_ephemeris_type": 0,
        "meta_classification_type": "U",
        "meta_norad_cat_id": 35682,
        "meta_element_set_no": 999,
        "meta_rev_at_epoch": 87814,
        "meta_bstar": 0.00019342687,
        "meta_mean_motion_dot": 1.24e-05,
        "meta_mean_motion_ddot": 0,
        "tle_line1": "1 35682U 09041B   25350.32282265  .00001240  00000+0  19343-3 0  9992",
        "tle_line2": "2 35682  97.9793 120.9498 0009418 301.8459  58.1832 14.74614048878149"
      },
      "geometry": {
        "type": "Point",
        "coordinates": [
          -60.32563328986887,
          -12.93397190642171
        ]
      }
    },
    {
      "type": "Feature",
      "properties": {
        "norad_id": 35931,
        "name": "OCEANSAT-2",
        "group": "resource",
        "lat": -31.33015327130413,
        "lon": -3.8702397655139595,
        "alt_km": 896.2156029830521,
        "timestamp": "2025-12-16T21:38:56.826436+00:00",
        "meta_object_name": "OCEANSAT-2",
        "meta_object_id": "2009-051A",
        "meta_epoch": "2025-12-16T06:21:30.827232",
        "meta_mean_motion": 13.99623899,
        "meta_eccentricity": 0.00161253,
        "meta_inclination": 98.222,
        "meta_ra_of_asc_node": 350.508,
        "meta_arg_of_pericenter": 35.8282,
        "meta_mean_anomaly": 324.3963,
        "meta_ephemeris_type": 0,
        "meta_classification_type": "U",
        "meta_norad_cat_id": 35931,
        "meta_element_set_no": 999,
        "meta_rev_at_epoch": 85374,
        "meta_bstar": -7.2647916e-05,
        "meta_mean_motion_dot": -1.44e-06,
        "meta_mean_motion_ddot": 0,
        "tle_line1": "1 35931U 09051A   25350.26494013 -.00000144  00000+0 -72648-4 0  9991",
        "tle_line2": "2 35931  98.2220 350.5080 0016125  35.8282 324.3963 13.99623899853746"
      },
      "geometry": {
        "type": "Point",
        "coordinates": [
          -3.8702397655139595,
          -31.33015327130413
        ]
      }
    },
    {
      "type": "Feature",
      "properties": {
        "norad_id": 35946,
        "name": "WORLDVIEW-2 (WV-2)",
        "group": "resource",
        "lat": -58.96223938517544,
        "lon": 76.28162000690273,
        "alt_km": 774.9422490343941,
        "timestamp": "2025-12-16T21:38:56.826447+00:00",
        "meta_object_name": "WORLDVIEW-2 (WV-2)",
        "meta_object_id": "2009-055A",
        "meta_epoch": "2025-12-16T08:33:56.774304",
        "meta_mean_motion": 14.37725574,
        "meta_eccentricity": 0.00050741,
        "meta_inclination": 98.4786,
        "meta_ra_of_asc_node": 61.3917,
        "meta_arg_of_pericenter": 61.8211,
        "meta_mean_anomaly": 298.3488,
        "meta_ephemeris_type": 0,
        "meta_classification_type": "U",
        "meta_norad_cat_id": 35946,
        "meta_element_set_no": 999,
        "meta_rev_at_epoch": 84937,
        "meta_bstar": 7.3350956e-05,
        "meta_mean_motion_dot": 1.77e-06,
        "meta_mean_motion_ddot": 0,
        "tle_line1": "1 35946U 09055A   25350.35690711  .00000177  00000+0  73351-4 0  9990",
        "tle_line2": "2 35946  98.4786  61.3917 0005074  61.8211 298.3488 14.37725574849371"
      },
      "geometry": {
        "type": "Point",
        "coordinates": [
          76.28162000690273,
          -58.96223938517544
        ]
      }
    }
  ]
}